TEVEL2-7                
1 63238U 25052AE  26068.66113295  .00019244  00000+0  69668-3 0  9998
2 63238  97.4054 324.3041 0008105 124.6830 235.5175 15.28414096 54803
STARLINK-34055          
1 63819U 25092R   26068.63813608  .00038075  00000+0  13864-2 0  9998
2 63819  42.9959 173.0806 0001830 290.3213  69.7442 15.27570771 48606
